NORAD_CAT_ID,OBJECT_NAME,OBJECT_TYPE,EPOCH,MEAN_MOTION,ECCENTRICITY,INCLINATION,RA_OF_ASC_NODE,ARG_OF_PERICENTER,MEAN_ANOMALY,BSTAR,MEAN_MOTION_DOT,MEAN_MOTION_DDOT,TLE_LINE0,TLE_LINE1,TLE_LINE2,SEMIMAJOR_AXIS,PERIOD,APOGEE,PERIGEE,DECAYED
55765.0,STARLINK-5595,PAYLOAD,2024-04-27 04:00:18,14.98332254,0.000308,69.999,142.9797,267.4253,92.6554,7.7364e-05,8.3e-06,0.0,0 STARLINK-5595,1 55765U 23028AA  24118.16687986  .00000830  00000-0  77364-4 0  9992,2 55765  69.9990 142.9797 0003080 267.4253  92.6554 14.98332254 64430,6950.186,96.107,574.192,569.91,0.0
55765.0,STARLINK-5595,PAYLOAD,2024-04-27 12:00:58,14.98334668,0.0003042,69.999,142.1381,267.0408,93.0403,9.6813e-05,1.062e-05,0.0,0 STARLINK-5595,1 55765U 23028AA  24118.50067694  .00001062  00000-0  96813-4 0  9996,2 55765  69.9990 142.1381 0003042 267.0408  93.0403 14.98334668 64492,6950.178,96.107,574.158,569.929,0.0
55765.0,STARLINK-5595,PAYLOAD,2024-04-27 18:25:31,14.9831833,0.0002987,69.9992,141.4645,271.6083,88.4734,0.00018628,2.13e-05,0.0,0 STARLINK-5595,1 55765U 23028AA  24118.76772579  .00002130  00000-0  18628-3 0  9993,2 55765  69.9992 141.4645 0002987 271.6083  88.4734 14.98318330 64523,6950.229,96.108,574.17,570.018,0.0
55765.0,STARLINK-5595,PAYLOAD,2024-04-28 10:26:52,14.98321675,0.0002817,69.9994,139.7817,266.7782,93.3055,-9.4166e-05,-1.216e-05,0.0,0 STARLINK-5595,1 55765U 23028AA  24119.43533139 -.00001216  00000-0 -94166-4 0  9993,2 55765  69.9994 139.7817 0002817 266.7782  93.3055 14.98321675 64638,6950.219,96.108,574.042,570.126,0.0
55765.0,STARLINK-5595,PAYLOAD,2024-04-29 04:04:20,14.98328794,0.0002789,69.9993,137.9304,263.7801,96.304,-6.3386e-05,-8.49e-06,0.0,0 STARLINK-5595,1 55765U 23028AA  24120.16968702 -.00000849  00000-0 -63386-4 0  9994,2 55765  69.9993 137.9304 0002789 263.7801  96.3040 14.98328794 64732,6950.197,96.107,574.0,570.123,0.0
55765.0,STARLINK-5595,PAYLOAD,2024-04-29 10:28:53,14.98326714,0.0002829,69.9992,137.257,265.9294,94.1542,-8.1403e-05,-1.064e-05,0.0,0 STARLINK-5595,1 55765U 23028AA  24120.43672939 -.00001064  00000-0 -81403-4 0  9998,2 55765  69.9992 137.2570 0002829 265.9294  94.1542 14.98326714 64782,6950.203,96.107,574.034,570.102,0.0
55765.0,STARLINK-5595,PAYLOAD,2024-04-29 18:29:33,14.98328837,0.0003075,69.9986,136.4149,262.1143,97.9667,-4.0882e-05,-5.81e-06,0.0,0 STARLINK-5595,1 55765U 23028AA  24120.77052671 -.00000581  00000-0 -40882-4 0  9999,2 55765  69.9986 136.4149 0003075 262.1143  97.9667 14.98328837 64837,6950.196,96.107,574.199,569.924,0.0
55765.0,STARLINK-5595,PAYLOAD,2024-04-30 04:06:21,14.98323689,0.0003042,69.9985,135.4049,267.5672,92.5139,8.7064e-05,9.46e-06,0.0,0 STARLINK-5595,1 55765U 23028AA  24121.17108796  .00000946  00000-0  87064-4 0  9990,2 55765  69.9985 135.4049 0003042 267.5672  92.5139 14.98323689 64884,6950.212,96.107,574.192,569.963,0.0
55765.0,STARLINK-5595,PAYLOAD,2024-04-30 10:30:54,14.98325537,0.0003049,69.9985,134.7315,267.7477,92.3333,7.5072e-05,8.03e-06,0.0,0 STARLINK-5595,1 55765U 23028AA  24121.43812802  .00000803  00000-0  75072-4 0  9997,2 55765  69.9985 134.7315 0003049 267.7477  92.3333 14.98325537 64938,6950.207,96.107,574.191,569.953,0.0
55765.0,STARLINK-5595,PAYLOAD,2024-04-30 18:31:34,14.9832765,0.0003054,69.9985,133.8896,267.5728,92.5081,6.7937e-05,7.18e-06,0.0,0 STARLINK-5595,1 55765U 23028AA  24121.77192749  .00000718  00000-0  67937-4 0  9991,2 55765  69.9985 133.8896 0003054 267.5728  92.5081 14.98327650 64980,6950.2,96.107,574.188,569.943,0.0
55765.0,STARLINK-5595,PAYLOAD,2024-05-01 04:08:22,14.98330509,0.0003072,69.9984,132.8797,267.6556,92.4251,5.7596e-05,5.94e-06,0.0,0 STARLINK-5595,1 55765U 23028AA  24122.17248611  .00000594  00000-0  57596-4 0  9998,2 55765  69.9984 132.8797 0003072 267.6556  92.4251 14.98330509 65030,6950.191,96.107,574.191,569.921,0.0
55765.0,STARLINK-5595,PAYLOAD,2024-05-01 10:32:54,14.98332171,0.0003061,69.9984,132.2063,267.6307,92.4502,7.119e-05,7.57e-06,0.0,0 STARLINK-5595,1 55765U 23028AA  24122.43952441  .00000757  00000-0  71190-4 0  9997,2 55765  69.9984 132.2063 0003061 267.6307  92.4502 14.98332171 65083,6950.186,96.107,574.179,569.924,0.0
55765.0,STARLINK-5595,PAYLOAD,2024-05-01 18:33:35,14.98334361,0.0003056,69.9984,131.3647,267.7868,92.2941,7.1786e-05,7.64e-06,0.0,0 STARLINK-5595,1 55765U 23028AA  24122.77332221  .00000764  00000-0  71786-4 0  9991,2 55765  69.9984 131.3647 0003056 267.7868  92.2941 14.98334361 65132,6950.179,96.107,574.168,569.92,0.0
55765.0,STARLINK-5595,PAYLOAD,2024-05-02 04:10:23,14.98336461,0.0003057,69.9982,130.3547,267.7761,92.3048,6.1401e-05,6.4e-06,0.0,0 STARLINK-5595,1 55765U 23028AA  24123.17387959  .00000640  00000-0  61401-4 0  9990,2 55765  69.9982 130.3547 0003057 267.7761  92.3048 14.98336461 65188,6950.173,96.107,574.163,569.913,0.0
55765.0,STARLINK-5595,PAYLOAD,2024-05-02 10:34:55,14.98337831,0.000305,69.9983,129.6814,267.8534,92.2276,7.2668e-05,7.74e-06,0.0,0 STARLINK-5595,1 55765U 23028AA  24123.44091711  .00000774  00000-0  72668-4 0  9993,2 55765  69.9983 129.6814 0003050 267.8534  92.2276 14.98337831 65239,6950.169,96.106,574.153,569.914,0.0
55765.0,STARLINK-5595,PAYLOAD,2024-05-03 04:12:23,14.9833523,0.0002989,69.9984,127.8298,268.0367,92.045,-5.9141e-06,-1.64e-06,0.0,0 STARLINK-5595,1 55765U 23028AA  24124.17527775 -.00000164  00000-0 -59141-5 0  9995,2 55765  69.9984 127.8298 0002989 268.0367  92.0450 14.98335230 65337,6950.177,96.107,574.119,569.964,0.0
55765.0,STARLINK-5595,PAYLOAD,2024-05-03 10:36:56,14.98336315,0.0002971,69.9984,127.1564,268.2017,91.8801,5.8122e-06,-2.4e-07,0.0,0 STARLINK-5595,1 55765U 23028AA  24124.44231557 -.00000024  00000-0  58122-5 0  9997,2 55765  69.9984 127.1564 0002971 268.2017  91.8801 14.98336315 65388,6950.173,96.107,574.103,569.973,0.0
55765.0,STARLINK-5595,PAYLOAD,2024-05-03 17:01:28,14.98330844,0.0002909,69.9986,126.4831,268.9927,91.0899,-8.4193e-05,-1.097e-05,0.0,0 STARLINK-5595,1 55765U 23028AA  24124.70936081 -.00001097  00000-0 -84193-4 0  9998,2 55765  69.9986 126.4831 0002909 268.9927  91.0899 14.98330844 65422,6950.19,96.107,574.077,570.033,0.0
55765.0,STARLINK-5595,PAYLOAD,2024-05-04 04:14:25,14.98329186,0.0002914,69.9986,125.3049,268.3416,91.741,-0.00011541,-1.47e-05,0.0,0 STARLINK-5595,1 55765U 23028AA  24125.17668214 -.00001470  00000-0 -11541-3 0  9991,2 55765  69.9986 125.3049 0002914 268.3416  91.7410 14.98329186 65483,6950.195,96.107,574.086,570.035,0.0
55765.0,STARLINK-5595,PAYLOAD,2024-05-05 04:16:26,14.98328539,0.0003022,69.9985,122.7799,268.7593,91.322,-5.0667e-05,-6.97e-06,0.0,0 STARLINK-5595,1 55765U 23028AA  24126.17808191 -.00000697  00000-0 -50667-4 0  9995,2 55765  69.9985 122.7799 0003022 268.7593  91.3220 14.98328539 65639,6950.197,96.107,574.163,569.962,0.0
55765.0,STARLINK-5595,PAYLOAD,2024-05-05 09:04:50,14.98327559,0.0003034,69.9986,122.2749,268.8776,91.2035,-5.712e-05,-7.74e-06,0.0,0 STARLINK-5595,1 55765U 23028AA  24126.37836303 -.00000774  00000-0 -57120-4 0  9990,2 55765  69.9986 122.2749 0003034 268.8776  91.2035 14.98327559 65675,6950.2,96.107,574.174,569.957,0.0
55765.0,STARLINK-5595,PAYLOAD,2024-05-06 04:18:27,14.98325416,0.0003123,69.9985,120.2549,269.4879,90.5922,6.6142e-05,6.96e-06,0.0,0 STARLINK-5595,1 55765U 23028AA  24127.17948253  .00000696  00000-0  66142-4 0  9992,2 55765  69.9985 120.2549 0003123 269.4879  90.5922 14.98325416 65789,6950.207,96.107,574.243,569.902,0.0
55765.0,STARLINK-5595,PAYLOAD,2024-05-06 09:06:51,14.98327585,0.0003121,69.9985,119.7499,269.8462,90.234,7.9982e-05,8.61e-06,0.0,0 STARLINK-5595,1 55765U 23028AA  24127.37976116  .00000861  00000-0  79982-4 0  9993,2 55765  69.9985 119.7499 0003121 269.8462  90.2340 14.98327585 65821,6950.2,96.107,574.235,569.896,0.0
55765.0,STARLINK-5595,PAYLOAD,2024-05-06 17:07:31,14.98330339,0.0003107,69.9986,118.9085,269.5953,90.485,8.9149e-05,9.71e-06,0.0,0 STARLINK-5595,1 55765U 23028AA  24127.71355939  .00000971  00000-0  89149-4 0  9993,2 55765  69.9986 118.9085 0003107 269.5953  90.4850 14.98330339 65874,6950.192,96.107,574.216,569.897,0.0
55765.0,STARLINK-5595,PAYLOAD,2024-05-07 04:20:27,14.98333691,0.0003131,69.9986,117.7303,269.9027,90.1773,8.8484e-05,9.63e-06,0.0,0 STARLINK-5595,1 55765U 23028AA  24128.18087642  .00000963  00000-0  88484-4 0  9990,2 55765  69.9986 117.7303 0003131 269.9027  90.1773 14.98333691 65939,6950.181,96.107,574.223,569.87,0.0
55765.0,STARLINK-5595,PAYLOAD,2024-05-07 09:08:51,14.98336074,0.0003123,69.9986,117.2253,269.935,90.1451,0.00010164,1.12e-05,0.0,0 STARLINK-5595,1 55765U 23028AA  24128.38115382  .00001120  00000-0  10164-3 0  9990,2 55765  69.9986 117.2253 0003123 269.9350  90.1451 14.98336074 65973,6950.174,96.107,574.21,569.869,0.0
55765.0,STARLINK-5595,PAYLOAD,2024-05-07 17:09:32,14.98331574,0.0003068,69.9987,116.383,269.2651,90.8157,2.0921e-05,1.57e-06,0.0,0 STARLINK-5595,1 55765U 23028AA  24128.71495780  .00000157  00000-0  20921-4 0  9992,2 55765  69.9987 116.3830 0003068 269.2651  90.8157 14.98331574 66027,6950.188,96.107,574.185,569.921,0.0
55765.0,STARLINK-5595,PAYLOAD,2024-05-08 04:22:29,14.98329117,0.0003068,69.9987,115.205,269.3393,90.7414,-3.4199e-05,-5.01e-06,0.0,0 STARLINK-5595,1 55765U 23028AA  24129.18228052 -.00000501  00000-0 -34199-4 0  9997,2 55765  69.9987 115.2050 0003068 269.3393  90.7414 14.98329117 66084,6950.196,96.107,574.193,569.928,0.0
55765.0,STARLINK-5595,PAYLOAD,2024-05-08 09:10:53,14.98329761,0.0003081,69.9987,114.7003,269.9335,90.1471,-2.8588e-05,-4.34e-06,0.0,0 STARLINK-5595,1 55765U 23028AA  24129.38255990 -.00000434  00000-0 -28588-4 0  9990,2 55765  69.9987 114.7003 0003081 269.9335  90.1471 14.98329761 66120,6950.194,96.107,574.2,569.917,0.0
55765.0,STARLINK-5595,PAYLOAD,2024-05-09 04:24:29,14.98335581,0.0003046,69.9989,112.6804,270.4952,89.5858,-3.0602e-05,-4.58e-06,0.0,0 STARLINK-5595,1 55765U 23028AA  24130.18367445 -.00000458  00000-0 -30602-4 0  9995,2 55765  69.9989 112.6804 0003046 270.4952  89.5858 14.98335581 66231,6950.176,96.107,574.158,569.924,0.0
